STARLINK-36403          
1 67563U 26016C   26185.60191673  .00071605  00000+0  21973-2 0  9999
2 67563  97.2832 245.3920 0000425 125.3867 234.7416 15.33475715 24787
STARLINK-36593          
1 67564U 26016D   26185.60733095  .00073587  00000+0  22546-2 0  9998
2 67564  97.2831 245.3834 0000846 255.7856 104.3293 15.33515297 24789
STARLINK-35725          
1 67565U 26016E   26185.43060322  .00036709  00000+0  11329-2 0  9998
2 67565  97.2824 245.1675 0000580 235.3993 124.7195 15.33472681 24757
STARLINK-36394          
1 67566U 26016F   26185.43330276  .00030161  00000+0  93112-3 0  9994
2 67566  97.2831 245.1664 0001126 236.8986 123.2148 15.33503652 24754
STARLINK-36352          
1 67567U 26016G   26185.59645708  .00050601  00000+0  15568-2 0  9990
2 67567  97.2847 245.4030 0001095 234.5054 125.6086 15.33494012 24787
STARLINK-36435          
1 67568U 26016H   26185.58559652  .00043256  00000+0  13323-2 0  9997
2 67568  97.2840 245.4173 0001419  87.6611 272.4794 15.33498375 24788
STARLINK-36575          
1 67569U 26016J   26185.44567579  .00038194  00000+0  11778-2 0  9997
2 67569  97.2843 246.2120 0000839 103.5398 256.5938 15.33489305 24829
STARLINK-36562          
1 67570U 26016K   26185.59374601  .00042480  00000+0  13092-2 0  9991
2 67570  97.2833 245.4071 0000538 226.7402 133.3796 15.33483383 24785
STARLINK-36578          
1 67571U 26016L   26185.43602374  .00035236  00000+0  10867-2 0  9994
2 67571  97.2841 245.1620 0001575 256.7019 103.4048 15.33504102 24759
STARLINK-36350          
1 67572U 26016M   26185.42516482  .00033387  00000+0  10309-2 0  9994
2 67572  97.2837 245.1767 0000463 282.0296  78.0894 15.33477867 24754
STARLINK-36588          
1 67573U 26016N   26185.62364528  .00042027  00000+0  12950-2 0  9994
2 67573  97.2833 245.3663 0000691 218.3807 141.7387 15.33492248 24789
STARLINK-36594          
1 67574U 26016P   26185.13424272  .00034483  00000+0  10649-2 0  9994
2 67574  97.2825 244.9607 0000215  69.3194 290.8072 15.33465082 24715
STARLINK-36400          
1 67575U 26016Q   26185.61003263  .00069979  00000+0  21436-2 0  9995
2 67575  97.2814 245.3820 0002589 268.7597  91.3349 15.33536680 24785
STARLINK-36591          
1 67576U 26016R   26185.59917951  .00050038  00000+0  15406-2 0  9997
2 67576  97.2838 245.3988 0000136 123.6719 236.4537 15.33473715 24788
STARLINK-36590          
1 67577U 26016S   26185.61275255  .00067496  00000+0  20705-2 0  9999
2 67577  97.2837 245.3806 0002695 279.5557  80.5381 15.33502517 24788
STARLINK-36613          
1 67578U 26016T   26185.44148059  .00037105  00000+0  11452-2 0  9995
2 67578  97.2828 245.1565 0000472 247.6252 112.4941 15.33467531 24758
STARLINK-36571          
1 67579U 26016U   26185.41973028  .00032730  00000+0  10111-2 0  9995
2 67579  97.2808 245.1823 0000798 107.3118 252.8212 15.33466364 24751
STARLINK-36612          
1 67580U 26016V   26185.58014044  .00086972  00000+0  26583-2 0  9996
2 67580  97.2836 245.4245 0001690 295.5516  64.5552 15.33529775 24783
STARLINK-36632          
1 67581U 26016W   26185.60461492  .00050939  00000+0  15679-2 0  9991
2 67581  97.2853 245.3908 0000173 183.4026 176.7216 15.33478348 24786
STARLINK-36609          
1 67582U 26016X   26185.61821272  .00026516  00000+0  82013-3 0  9990
2 67582  97.2835 245.3732 0001192  88.8253 271.3126 15.33470118 24783
STARLINK-36577          
1 67583U 26016Y   26185.44691563  .00036979  00000+0  11405-2 0  9990
2 67583  97.2847 245.2989 0000470 104.9023 255.2272 15.33492489 24769
STARLINK-36419          
1 67584U 26016Z   26185.58831926  .00075778  00000+0  23234-2 0  9998
2 67584  97.2860 245.4126 0001271 246.8306 113.2803 15.33482028 24783
STARLINK-36560          
1 67585U 26016AA  26185.43875570  .00036758  00000+0  11336-2 0  9991
2 67585  97.2848 245.1608 0000903 250.2129 109.9016 15.33495089 24751
NAVSTAR 85 (USA 581)    
1 67588U 26017A   26184.15130388 -.00000011  00000+0  00000+0 0  9991
2 67588  55.0981  88.1147 0021553 259.0421 100.7528  2.00570852431934
STARLINK-36641          
1 67589U 26018A   26185.43585683  .00039218  00000+0  12099-2 0  9991
2 67589  97.2820 249.9574 0000863 101.3942 258.7398 15.33468975 25226
STARLINK-36376          
1 67590U 26018B   26185.61258375  .00047371  00000+0  14579-2 0  9992
2 67590  97.2821 250.1764 0000260 199.2120 160.9113 15.33500104 25252
STARLINK-36391          
1 67591U 26018C   26185.44944761  .00030563  00000+0  94401-3 0  9993
2 67591  97.2875 249.9418 0000865  93.8259 266.3082 15.33485576 25225
STARLINK-36603          
1 67592U 26018D   26185.60714537  .00063261  00000+0  19417-2 0  9992
2 67592  97.2842 250.1846 0000805 245.1320 114.9839 15.33506809 25258
STARLINK-36634          
1 67593U 26018E   26184.75339598  .00030760  00000+0  95073-3 0  9999
2 67593  97.2842 249.3542 0000742  53.0504 307.0806 15.33462881 25128
STARLINK-36638          
1 67594U 26018F   26185.44400822  .00030134  00000+0  93107-3 0  9997
2 67594  97.2836 249.9485 0000253 184.8079 175.3161 15.33477232 25228
