OBJECT_NAME,OBJECT_ID,EPOCH,MEAN_MOTION,ECCENTRICITY,INCLINATION,RA_OF_ASC_NODE,ARG_OF_PERICENTER,MEAN_ANOMALY,EPHEMERIS_TYPE,CLASSIFICATION_TYPE,NORAD_CAT_ID,ELEMENT_SET_NO,REV_AT_EPOCH,BSTAR,MEAN_MOTION_DOT,MEAN_MOTION_DDOT
STARLINK-36403,2026-016C,2026-07-04T14:26:45.605472,15.33475715,.00004254,97.2832,245.3920,125.3867,234.7416,0,U,67563,999,2478,.21972659E-2,.71605E-3,0
STARLINK-36593,2026-016D,2026-07-04T14:34:33.394080,15.33515297,.00008463,97.2831,245.3834,255.7856,104.3293,0,U,67564,999,2478,.22546248E-2,.73587E-3,0
STARLINK-35725,2026-016E,2026-07-04T10:20:04.118208,15.33472681,.000058,97.2824,245.1675,235.3993,124.7195,0,U,67565,999,2475,.11329121E-2,.36709E-3,0
STARLINK-36394,2026-016F,2026-07-04T10:23:57.358464,15.33503652,.00011268,97.2831,245.1664,236.8986,123.2148,0,U,67566,999,2475,.93111621E-3,.30161E-3,0
STARLINK-36352,2026-016G,2026-07-04T14:18:53.891712,15.33494012,.00010954,97.2847,245.4030,234.5054,125.6086,0,U,67567,999,2478,.15568253E-2,.50601E-3,0
STARLINK-36435,2026-016H,2026-07-04T14:03:15.539328,15.33498375,.00014197,97.2840,245.4173,87.6611,272.4794,0,U,67568,999,2478,.13323001E-2,.43256E-3,0
STARLINK-36575,2026-016J,2026-07-04T10:41:46.388256,15.33489305,.00008399,97.2843,246.2120,103.5398,256.5938,0,U,67569,999,2482,.11777867E-2,.38194E-3,0
STARLINK-36562,2026-016K,2026-07-04T14:14:59.655264,15.33483383,.00005386,97.2833,245.4071,226.7402,133.3796,0,U,67570,999,2478,.13092015E-2,.4248E-3,0
STARLINK-36578,2026-016L,2026-07-04T10:27:52.451136,15.33504102,.00015753,97.2841,245.1620,256.7019,103.4048,0,U,67571,999,2475,.10866532E-2,.35236E-3,0
STARLINK-36350,2026-016M,2026-07-04T10:12:14.240448,15.33477867,.00004639,97.2837,245.1767,282.0296,78.0894,0,U,67572,999,2475,.10308622E-2,.33387E-3,0
STARLINK-36588,2026-016N,2026-07-04T14:58:02.952192,15.33492248,.00006912,97.2833,245.3663,218.3807,141.7387,0,U,67573,999,2478,.1294982E-2,.42027E-3,0
STARLINK-36594,2026-016P,2026-07-04T03:13:18.571008,15.33465082,.00002152,97.2825,244.9607,69.3194,290.8072,0,U,67574,999,2471,.10649124E-2,.34483E-3,0
STARLINK-36400,2026-016Q,2026-07-04T14:38:26.819232,15.33536680,.00025895,97.2814,245.3820,268.7597,91.3349,0,U,67575,999,2478,.21436436E-2,.69979E-3,0
STARLINK-36591,2026-016R,2026-07-04T14:22:49.109664,15.33473715,.00001365,97.2838,245.3988,123.6719,236.4537,0,U,67576,999,2478,.15406344E-2,.50038E-3,0
STARLINK-36590,2026-016S,2026-07-04T14:42:21.820320,15.33502517,.00026956,97.2837,245.3806,279.5557,80.5381,0,U,67577,999,2478,.20705361E-2,.67496E-3,0
STARLINK-36613,2026-016T,2026-07-04T10:35:43.922976,15.33467531,.00004724,97.2828,245.1565,247.6252,112.4941,0,U,67578,999,2475,.1145225E-2,.37105E-3,0
STARLINK-36571,2026-016U,2026-07-04T10:04:24.696192,15.33466364,.0000798,97.2808,245.1823,107.3118,252.8212,0,U,67579,999,2475,.10110978E-2,.3273E-3,0
STARLINK-36612,2026-016V,2026-07-04T13:55:24.134016,15.33529775,.00016906,97.2836,245.4245,295.5516,64.5552,0,U,67580,999,2478,.26583208E-2,.86972E-3,0
STARLINK-36632,2026-016W,2026-07-04T14:30:38.729088,15.33478348,.0000173,97.2853,245.3908,183.4026,176.7216,0,U,67581,999,2478,.15679297E-2,.50939E-3,0
STARLINK-36609,2026-016X,2026-07-04T14:50:13.579008,15.33470118,.00011924,97.2835,245.3732,88.8253,271.3126,0,U,67582,999,2478,.82013343E-3,.26516E-3,0
STARLINK-36577,2026-016Y,2026-07-04T10:43:33.510432,15.33492489,.00004705,97.2847,245.2989,104.9023,255.2272,0,U,67583,999,2476,.11404668E-2,.36979E-3,0
STARLINK-36419,2026-016Z,2026-07-04T14:07:10.784064,15.33482028,.00012719,97.2860,245.4126,246.8306,113.2803,0,U,67584,999,2478,.23234236E-2,.75778E-3,0
STARLINK-36560,2026-016AA,2026-07-04T10:31:48.492480,15.33495089,.00009037,97.2848,245.1608,250.2129,109.9016,0,U,67585,999,2475,.11336048E-2,.36758E-3,0
NAVSTAR 85 (USA 581),2026-017A,2026-07-03T03:37:52.655232,2.00570852,.00215535,55.0981,88.1147,259.0421,100.7528,0,U,67588,999,43193,0,-.11E-6,0
STARLINK-36641,2026-018A,2026-07-04T10:27:38.030112,15.33468975,.00008632,97.2820,249.9574,101.3942,258.7398,0,U,67589,999,2522,.12099086E-2,.39218E-3,0
STARLINK-36376,2026-018B,2026-07-04T14:42:07.236000,15.33500104,.00002609,97.2821,250.1764,199.2120,160.9113,0,U,67590,999,2525,.14579476E-2,.47371E-3,0
STARLINK-36391,2026-018C,2026-07-04T10:47:12.273504,15.33485576,.00008657,97.2875,249.9418,93.8259,266.3082,0,U,67591,999,2522,.94400547E-3,.30563E-3,0
STARLINK-36603,2026-018D,2026-07-04T14:34:17.359968,15.33506809,.00008053,97.2842,250.1846,245.1320,114.9839,0,U,67592,999,2525,.1941728E-2,.63261E-3,0
STARLINK-36634,2026-018E,2026-07-03T18:04:53.412672,15.33462881,.00007424,97.2842,249.3542,53.0504,307.0806,0,U,67593,999,2512,.95072985E-3,.3076E-3,0
STARLINK-36638,2026-018F,2026-07-04T10:39:22.310208,15.33477232,.00002532,97.2836,249.9485,184.8079,175.3161,0,U,67594,999,2522,.93106747E-3,.30134E-3,0
